CCSDS_OMM_VERS = 2.0
CREATION_DATE  = 
ORIGINATOR     = 

OBJECT_NAME    = ISS (ZARYA)
OBJECT_ID      = 1998-067A
CENTER_NAME    = EARTH
REF_FRAME      = TEME
TIME_SYSTEM    = UTC
MEAN_ELEMENT_THEORY = SGP/SGP4

EPOCH          = 2025-11-19T07:39:24.985152
MEAN_MOTION    = 15.49817487
ECCENTRICITY   = .00041444
INCLINATION    = 51.6333
RA_OF_ASC_NODE = 258.3957
ARG_OF_PERICENTER = 86.8503
MEAN_ANOMALY   = 273.2960

EPHEMERIS_TYPE = 0
CLASSIFICATION_TYPE = U
NORAD_CAT_ID   = 25544
ELEMENT_SET_NO = 999
REV_AT_EPOCH   = 53922
BSTAR          = .26247255E-3
MEAN_MOTION_DOT = .14458E-3
MEAN_MOTION_DDOT = 0

CCSDS_OMM_VERS = 2.0
CREATION_DATE  = 
ORIGINATOR     = 

OBJECT_NAME    = CSS (TIANHE)
OBJECT_ID      = 2021-035A
CENTER_NAME    = EARTH
REF_FRAME      = TEME
TIME_SYSTEM    = UTC
MEAN_ELEMENT_THEORY = SGP/SGP4

EPOCH          = 2025-11-19T21:43:43.504032
MEAN_MOTION    = 15.59324460
ECCENTRICITY   = .00073415
INCLINATION    = 41.4653
RA_OF_ASC_NODE = 155.2455
ARG_OF_PERICENTER = 199.2002
MEAN_ANOMALY   = 160.8561

EPHEMERIS_TYPE = 0
CLASSIFICATION_TYPE = U
NORAD_CAT_ID   = 48274
ELEMENT_SET_NO = 999
REV_AT_EPOCH   = 26046
BSTAR          = .23501423E-3
MEAN_MOTION_DOT = .1878E-3
MEAN_MOTION_DDOT = 0

CCSDS_OMM_VERS = 2.0
CREATION_DATE  = 
ORIGINATOR     = 

OBJECT_NAME    = ISS (NAUKA)
OBJECT_ID      = 2021-066A
CENTER_NAME    = EARTH
REF_FRAME      = TEME
TIME_SYSTEM    = UTC
MEAN_ELEMENT_THEORY = SGP/SGP4

EPOCH          = 2025-11-19T07:39:24.985152
MEAN_MOTION    = 15.49817487
ECCENTRICITY   = .00041444
INCLINATION    = 51.6333
RA_OF_ASC_NODE = 258.3957
ARG_OF_PERICENTER = 86.8503
MEAN_ANOMALY   = 273.2960

EPHEMERIS_TYPE = 0
CLASSIFICATION_TYPE = U
NORAD_CAT_ID   = 49044
ELEMENT_SET_NO = 999
REV_AT_EPOCH   = 23044
BSTAR          = .26247255E-3
MEAN_MOTION_DOT = .14458E-3
MEAN_MOTION_DDOT = 0

CCSDS_OMM_VERS = 2.0
CREATION_DATE  = 
ORIGINATOR     = 

OBJECT_NAME    = FREGAT DEB
OBJECT_ID      = 2011-037PF
CENTER_NAME    = EARTH
REF_FRAME      = TEME
TIME_SYSTEM    = UTC
MEAN_ELEMENT_THEORY = SGP/SGP4

EPOCH          = 2025-11-19T13:48:47.301408
MEAN_MOTION    = 12.34148651
ECCENTRICITY   = .0876238
INCLINATION    = 51.6206
RA_OF_ASC_NODE = 267.9380
ARG_OF_PERICENTER = 173.8968
MEAN_ANOMALY   = 187.3434

EPHEMERIS_TYPE = 0
CLASSIFICATION_TYPE = U
NORAD_CAT_ID   = 49271
ELEMENT_SET_NO = 999
REV_AT_EPOCH   = 19907
BSTAR          = .1742E-1
MEAN_MOTION_DOT = .7994E-4
MEAN_MOTION_DDOT = 0

CCSDS_OMM_VERS = 2.0
CREATION_DATE  = 
ORIGINATOR     = 

OBJECT_NAME    = CSS (WENTIAN)
OBJECT_ID      = 2022-085A
CENTER_NAME    = EARTH
REF_FRAME      = TEME
TIME_SYSTEM    = UTC
MEAN_ELEMENT_THEORY = SGP/SGP4

EPOCH          = 2025-11-19T21:43:43.504032
MEAN_MOTION    = 15.59324460
ECCENTRICITY   = .00073415
INCLINATION    = 41.4653
RA_OF_ASC_NODE = 155.2455
ARG_OF_PERICENTER = 199.2002
MEAN_ANOMALY   = 160.8561

EPHEMERIS_TYPE = 0
CLASSIFICATION_TYPE = U
NORAD_CAT_ID   = 53239
ELEMENT_SET_NO = 999
REV_AT_EPOCH   = 17384
BSTAR          = .23501423E-3
MEAN_MOTION_DOT = .1878E-3
MEAN_MOTION_DDOT = 0

CCSDS_OMM_VERS = 2.0
CREATION_DATE  = 
ORIGINATOR     = 

OBJECT_NAME    = CSS (MENGTIAN)
OBJECT_ID      = 2022-143A
CENTER_NAME    = EARTH
REF_FRAME      = TEME
TIME_SYSTEM    = UTC
MEAN_ELEMENT_THEORY = SGP/SGP4

EPOCH          = 2025-11-19T21:43:43.504032
MEAN_MOTION    = 15.59324460
ECCENTRICITY   = .00073415
INCLINATION    = 41.4653
RA_OF_ASC_NODE = 155.2455
ARG_OF_PERICENTER = 199.2002
MEAN_ANOMALY   = 160.8561

EPHEMERIS_TYPE = 0
CLASSIFICATION_TYPE = U
NORAD_CAT_ID   = 54216
ELEMENT_SET_NO = 999
REV_AT_EPOCH   = 15864
BSTAR          = .23501423E-3
MEAN_MOTION_DOT = .1878E-3
MEAN_MOTION_DDOT = 0

CCSDS_OMM_VERS = 2.0
CREATION_DATE  = 
ORIGINATOR     = 

OBJECT_NAME    = SOYUZ-MS 27
OBJECT_ID      = 2025-072A
CENTER_NAME    = EARTH
REF_FRAME      = TEME
TIME_SYSTEM    = UTC
MEAN_ELEMENT_THEORY = SGP/SGP4

EPOCH          = 2025-11-19T07:39:24.985152
MEAN_MOTION    = 15.49817487
ECCENTRICITY   = .00041444
INCLINATION    = 51.6333
RA_OF_ASC_NODE = 258.3957
ARG_OF_PERICENTER = 86.8503
MEAN_ANOMALY   = 273.2960

EPHEMERIS_TYPE = 0
CLASSIFICATION_TYPE = U
NORAD_CAT_ID   = 63520
ELEMENT_SET_NO = 999
REV_AT_EPOCH   = 2020
BSTAR          = .26247255E-3
MEAN_MOTION_DOT = .14458E-3
MEAN_MOTION_DDOT = 0

CCSDS_OMM_VERS = 2.0
CREATION_DATE  = 
ORIGINATOR     = 

OBJECT_NAME    = SHENZHOU-20 (SZ-20)
OBJECT_ID      = 2025-082A
CENTER_NAME    = EARTH
REF_FRAME      = TEME
TIME_SYSTEM    = UTC
MEAN_ELEMENT_THEORY = SGP/SGP4

EPOCH          = 2025-11-19T21:43:43.504032
MEAN_MOTION    = 15.59324460
ECCENTRICITY   = .00073415
INCLINATION    = 41.4653
RA_OF_ASC_NODE = 155.2455
ARG_OF_PERICENTER = 199.2002
MEAN_ANOMALY   = 160.8561

EPHEMERIS_TYPE = 0
CLASSIFICATION_TYPE = U
NORAD_CAT_ID   = 63632
ELEMENT_SET_NO = 999
REV_AT_EPOCH   = 25530
BSTAR          = .23501423E-3
MEAN_MOTION_DOT = .1878E-3
MEAN_MOTION_DDOT = 0

CCSDS_OMM_VERS = 2.0
CREATION_DATE  = 
ORIGINATOR     = 

OBJECT_NAME    = PROGRESS-MS 31
OBJECT_ID      = 2025-146A
CENTER_NAME    = EARTH
REF_FRAME      = TEME
TIME_SYSTEM    = UTC
MEAN_ELEMENT_THEORY = SGP/SGP4

EPOCH          = 2025-11-19T07:39:24.985152
MEAN_MOTION    = 15.49817487
ECCENTRICITY   = .00041444
INCLINATION    = 51.6333
RA_OF_ASC_NODE = 258.3957
ARG_OF_PERICENTER = 86.8503
MEAN_ANOMALY   = 273.2960

EPHEMERIS_TYPE = 0
CLASSIFICATION_TYPE = U
NORAD_CAT_ID   = 64751
ELEMENT_SET_NO = 999
REV_AT_EPOCH   = 675
BSTAR          = .26247255E-3
MEAN_MOTION_DOT = .14458E-3
MEAN_MOTION_DDOT = 0

CCSDS_OMM_VERS = 2.0
CREATION_DATE  = 
ORIGINATOR     = 

OBJECT_NAME    = TIANZHOU-9
OBJECT_ID      = 2025-149A
CENTER_NAME    = EARTH
REF_FRAME      = TEME
TIME_SYSTEM    = UTC
MEAN_ELEMENT_THEORY = SGP/SGP4

EPOCH          = 2025-11-19T21:43:43.504032
MEAN_MOTION    = 15.59324460
ECCENTRICITY   = .00073415
INCLINATION    = 41.4653
RA_OF_ASC_NODE = 155.2455
ARG_OF_PERICENTER = 199.2002
MEAN_ANOMALY   = 160.8561

EPHEMERIS_TYPE = 0
CLASSIFICATION_TYPE = U
NORAD_CAT_ID   = 64786
ELEMENT_SET_NO = 999
REV_AT_EPOCH   = 25530
BSTAR          = .23501423E-3
MEAN_MOTION_DOT = .1878E-3
MEAN_MOTION_DDOT = 0

CCSDS_OMM_VERS = 2.0
CREATION_DATE  = 
ORIGINATOR     = 

OBJECT_NAME    = CREW DRAGON 11
OBJECT_ID      = 2025-166A
CENTER_NAME    = EARTH
REF_FRAME      = TEME
TIME_SYSTEM    = UTC
MEAN_ELEMENT_THEORY = SGP/SGP4

EPOCH          = 2025-11-19T07:39:24.985152
MEAN_MOTION    = 15.49817487
ECCENTRICITY   = .00041444
INCLINATION    = 51.6333
RA_OF_ASC_NODE = 258.3957
ARG_OF_PERICENTER = 86.8503
MEAN_ANOMALY   = 273.2960

EPHEMERIS_TYPE = 0
CLASSIFICATION_TYPE = U
NORAD_CAT_ID   = 65077
ELEMENT_SET_NO = 999
REV_AT_EPOCH   = 214
BSTAR          = .26247255E-3
MEAN_MOTION_DOT = .14458E-3
MEAN_MOTION_DDOT = 0

CCSDS_OMM_VERS = 2.0
CREATION_DATE  = 
ORIGINATOR     = 

OBJECT_NAME    = DRAGON CRS-33
OBJECT_ID      = 2025-186A
CENTER_NAME    = EARTH
REF_FRAME      = TEME
TIME_SYSTEM    = UTC
MEAN_ELEMENT_THEORY = SGP/SGP4

EPOCH          = 2025-11-19T07:39:24.985152
MEAN_MOTION    = 15.49817487
ECCENTRICITY   = .00041444
INCLINATION    = 51.6333
RA_OF_ASC_NODE = 258.3957
ARG_OF_PERICENTER = 86.8503
MEAN_ANOMALY   = 273.2960

EPHEMERIS_TYPE = 0
CLASSIFICATION_TYPE = U
NORAD_CAT_ID   = 65304
ELEMENT_SET_NO = 999
REV_AT_EPOCH   = 11
BSTAR          = .26247255E-3
MEAN_MOTION_DOT = .14458E-3
MEAN_MOTION_DDOT = 0

