ISS (ZARYA)             
1 25544U 98067A   25323.31903918  .00014458  00000+0  26247-3 0  9994
2 25544  51.6333 258.3957 0004144  86.8503 273.2960 15.49817487539229
CSS (TIANHE)            
1 48274U 21035A   25323.90536463  .00018780  00000+0  23501-3 0  9994
2 48274  41.4653 155.2455 0007341 199.2002 160.8561 15.59324460260469
ISS (NAUKA)             
1 49044U 21066A   25323.31903918  .00014458  00000+0  26247-3 0  9990
2 49044  51.6333 258.3957 0004144  86.8503 273.2960 15.49817487230442
FREGAT DEB              
1 49271U 11037PF  25323.57554747  .00007994  00000+0  17420-1 0  9997
2 49271  51.6206 267.9380 0876238 173.8968 187.3434 12.34148651199077
CSS (WENTIAN)           
1 53239U 22085A   25323.90536463  .00018780  00000+0  23501-3 0  9997
2 53239  41.4653 155.2455 0007341 199.2002 160.8561 15.59324460173841
CSS (MENGTIAN)          
1 54216U 22143A   25323.90536463  .00018780  00000+0  23501-3 0  9998
2 54216  41.4653 155.2455 0007341 199.2002 160.8561 15.59324460158648
SOYUZ-MS 27             
1 63520U 25072A   25323.31903918  .00014458  00000+0  26247-3 0  9996
2 63520  51.6333 258.3957 0004144  86.8503 273.2960 15.49817487 20208
SHENZHOU-20 (SZ-20)     
1 63632U 25082A   25323.90536463  .00018780  00000+0  23501-3 0  9995
2 63632  41.4653 155.2455 0007341 199.2002 160.8561 15.59324460255301
PROGRESS-MS 31          
1 64751U 25146A   25323.31903918  .00014458  00000+0  26247-3 0  9995
2 64751  51.6333 258.3957 0004144  86.8503 273.2960 15.49817487  6759
TIANZHOU-9              
1 64786U 25149A   25323.90536463  .00018780  00000+0  23501-3 0  9990
2 64786  41.4653 155.2455 0007341 199.2002 160.8561 15.59324460255302
CREW DRAGON 11          
1 65077U 25166A   25323.31903918  .00014458  00000+0  26247-3 0  9999
2 65077  51.6333 258.3957 0004144  86.8503 273.2960 15.49817487  2140
DRAGON CRS-33           
1 65304U 25186A   25323.31903918  .00014458  00000+0  26247-3 0  9994
2 65304  51.6333 258.3957 0004144  86.8503 273.2960 15.49817487   118
